KNACKSAT-2              
1 67683U 98067XZ  26167.06925753  .00039932  00000+0  48947-3 0  9999
2 67683  51.6312 300.0997 0009231 210.2496 149.7965 15.59891318 20101
INNOSAT 3 (RS92S0)      
1 64894U 25155U   26167.27554751  .00033143  00000+0  73216-3 0  9992
2 64894  97.4487 138.7497 0006355 153.5954 206.5619 15.43770040 80820
