OBJECT_NAME,OBJECT_ID,EPOCH,MEAN_MOTION,ECCENTRICITY,INCLINATION,RA_OF_ASC_NODE,ARG_OF_PERICENTER,MEAN_ANOMALY,EPHEMERIS_TYPE,CLASSIFICATION_TYPE,NORAD_CAT_ID,ELEMENT_SET_NO,REV_AT_EPOCH,BSTAR,MEAN_MOTION_DOT,MEAN_MOTION_DDOT
INNOSAT 3 (RS92S0),2025-155U,2026-06-16T06:36:47.304864,15.43770040,.00063558,97.4487,138.7497,153.5954,206.5619,0,U,64894,999,8082,.73216095E-3,.33143E-3,0
KNACKSAT-2,1998-067XZ,2026-06-16T01:39:43.850592,15.59891318,.00092317,51.6312,300.0997,210.2496,149.7965,0,U,67683,999,2010,.48947014E-3,.39932E-3,0
